[
  {
    "_id": "65ca3046d97e6e6bf9bf5ae6",
    "Category": "Outside Dhaka",
    "district": "Khulna",
    "area": "Khulna Sadar",
    "postCode": 9000,
    "homeDelivery": "Yes",
    "lockDown": "No",
    "charge1kg": 150,
    "charge2kg": 180,
    "charge3kg": 210,
    "codCharge": 2
  },
  {
    "_id": "65ca3046d97e6e6bf9bf5ae7",
    "Category": "Outside Dhaka",
    "district": "Khulna",
    "area": "Daulatpur",
    "postCode": 9201,
    "homeDelivery": "Yes",
    "lockDown": "No",
    "charge1kg": 150,
    "charge2kg": 180,
    "charge3kg": 210,
    "codCharge": 2
  },
  {
    "_id": "65ca3046d97e6e6bf9bf5ae8",
    "Category": "Outside Dhaka",
    "district": "Khulna",
    "area": "Jessore Sadar",
    "postCode": 7400,
    "homeDelivery": "Yes",
    "lockDown": "No",
    "charge1kg": 150,
    "charge2kg": 180,
    "charge3kg": 210,
    "codCharge": 2
  },
  {
    "_id": "65ca3046d97e6e6bf9bf5ae9",
    "Category": "Outside Dhaka",
    "district": "Jessore",
    "area": "Benapole",
    "postCode": 7431,
    "homeDelivery": "Yes",
    "lockDown": "No",
    "charge1kg": 150,
    "charge2kg": 180,
    "charge3kg": 210,
    "codCharge": 2
  },
  {
    "_id": "65ca3046d97e6e6bf9bf5aea",
    "Category": "Outside Dhaka",
    "district": "Jessore",
    "area": "Jhikargachha",
    "postCode": 7420,
    "homeDelivery": "Yes",
    "lockDown": "No",
    "charge1kg": 150,
    "charge2kg": 180,
    "charge3kg": 210,
    "codCharge": 2
  },
  {
    "_id": "65ca3046d97e6e6bf9bf5aeb",
    "Category": "Outside Dhaka",
    "district": "Barishal",
    "area": "Barishal Sadar",
    "postCode": 8200,
    "homeDelivery": "Yes",
    "lockDown": "No",
    "charge1kg": 150,
    "charge2kg": 180,
    "charge3kg": 210,
    "codCharge": 2
  },
  {
    "_id": "65ca3046d97e6e6bf9bf5aec",
    "Category": "Outside Dhaka",
    "district": "Barishal",
    "area": "Jhalokati",
    "postCode": 8400,
    "homeDelivery": "Yes",
    "lockDown": "No",
    "charge1kg": 150,
    "charge2kg": 180,
    "charge3kg": 210,
    "codCharge": 2
  },
  {
    "_id": "65ca3046d97e6e6bf9bf5aed",
    "Category": "Outside Dhaka",
    "district": "Mymensingh",
    "area": "Mymensingh Sadar",
    "postCode": 2200,
    "homeDelivery": "Yes",
    "lockDown": "No",
    "charge1kg": 150,
    "charge2kg": 180,
    "charge3kg": 210,
    "codCharge": 2
  },
  {
    "_id": "65ca3046d97e6e6bf9bf5aee",
    "Category": "Outside Dhaka",
    "district": "Mymensingh",
    "area": "Trishal",
    "postCode": 2220,
    "homeDelivery": "Yes",
    "lockDown": "No",
    "charge1kg": 150,
    "charge2kg": 180,
    "charge3kg": 210,
    "codCharge": 2
  },
  {
    "_id": "65ca3046d97e6e6bf9bf5aef",
    "Category": "Outside Dhaka",
    "district": "Mymensingh",
    "area": "Gafargaon",
    "postCode": 2260,
    "homeDelivery": "Yes",
    "lockDown": "No",
    "charge1kg": 150,
    "charge2kg": 180,
    "charge3kg": 210,
    "codCharge": 2
  },
  {
    "_id": "65ca3046d97e6e6bf9bf5af0",
    "Category": "Outside Dhaka",
    "district": "Rangpur",
    "area": "Rangpur Sadar",
    "postCode": 5400,
    "homeDelivery": "Yes",
    "lockDown": "No",
    "charge1kg": 150,
    "charge2kg": 180,
    "charge3kg": 210,
    "codCharge": 2
  },
  {
    "_id": "65ca3046d97e6e6bf9bf5af1",
    "Category": "Outside Dhaka",
    "district": "Rangpur",
    "area": "Pirganj",
    "postCode": 5430,
    "homeDelivery": "Yes",
    "lockDown": "No",
    "charge1kg": 150,
    "charge2kg": 180,
    "charge3kg": 210,
    "codCharge": 2
  },
  {
    "_id": "65ca3046d97e6e6bf9bf5af2",
    "Category": "Outside Dhaka",
    "district": "Rangpur",
    "area": "Badarganj",
    "postCode": 5410,
    "homeDelivery": "Yes",
    "lockDown": "No",
    "charge1kg": 150,
    "charge2kg": 180,
    "charge3kg": 210,
    "codCharge": 2
  },
  {
    "_id": "65ca3046d97e6e6bf9bf5af3",
    "Category": "Outside Dhaka",
    "district": "Rangpur",
    "area": "Mithapukur",
    "postCode": 5420,
    "homeDelivery": "Yes",
    "lockDown": "No",
    "charge1kg": 150,
    "charge2kg": 180,
    "charge3kg": 210,
    "codCharge": 2
  },
  {
    "_id": "65ca3046d97e6e6bf9bf5af4",
    "Category": "Outside Dhaka",
    "district": "Bogra",
    "area": "Bogra Sadar",
    "postCode": 5800,
    "homeDelivery": "Yes",
    "lockDown": "No",
    "charge1kg": 150,
    "charge2kg": 180,
    "charge3kg": 210,
    "codCharge": 2
  },
  {
    "_id": "65ca3046d97e6e6bf9bf5af5",
    "Category": "Inside Dhaka",
    "district": "Dhaka",
    "area": "Salimullah Road",
    "postCode": 1207,
    "homeDelivery": "Yes",
    "lockDown": "No",
    "charge1kg": 69,
    "charge2kg": 84,
    "charge3kg": 99,
    "codCharge": 0
  },
  {
    "_id": "65ca3046d97e6e6bf9bf5af6",
    "Category": "Inside Dhaka",
    "district": "Dhaka",
    "area": "Mirpur",
    "postCode": 1216,
    "homeDelivery": "Yes",
    "lockDown": "No",
    "charge1kg": 69,
    "charge2kg": 84,
    "charge3kg": 99,
    "codCharge": 0
  },
  {
    "_id": "65ca3046d97e6e6bf9bf5af7",
    "Category": "Inside Dhaka",
    "district": "Dhaka",
    "area": "Dhanmondi",
    "postCode": 1209,
    "homeDelivery": "Yes",
    "lockDown": "No",
    "charge1kg": 69,
    "charge2kg": 84,
    "charge3kg": 99,
    "codCharge": 0
  },
  {
    "_id": "65ca3046d97e6e6bf9bf5af8",
    "Category": "Inside Dhaka",
    "district": "Dhaka",
    "area": "Gulshan",
    "postCode": 1212,
    "homeDelivery": "Yes",
    "lockDown": "No",
    "charge1kg": 69,
    "charge2kg": 84,
    "charge3kg": 99,
    "codCharge": 0
  },
  {
    "_id": "65ca3046d97e6e6bf9bf5af9",
    "Category": "Inside Dhaka",
    "district": "Dhaka",
    "area": "Uttara",
    "postCode": 1230,
    "homeDelivery": "Yes",
    "lockDown": "No",
    "charge1kg": 69,
    "charge2kg": 84,
    "charge3kg": 99,
    "codCharge": 0
  },
  {
    "_id": "65ca3046d97e6e6bf9bf5afa",
    "Category": "Inside Dhaka",
    "district": "Dhaka",
    "area": "Banani",
    "postCode": 1213,
    "homeDelivery": "Yes",
    "lockDown": "No",
    "charge1kg": 69,
    "charge2kg": 84,
    "charge3kg": 99,
    "codCharge": 0
  },
  {
    "_id": "65ca3046d97e6e6bf9bf5afb",
    "Category": "Inside Dhaka",
    "district": "Dhaka",
    "area": "Mohakhali",
    "postCode": 1212,
    "homeDelivery": "Yes",
    "lockDown": "No",
    "charge1kg": 69,
    "charge2kg": 84,
    "charge3kg": 99,
    "codCharge": 1
  },
  {
    "_id": "65ca3046d97e6e6bf9bf5afc",
    "Category": "Inside Dhaka",
    "district": "Dhaka",
    "area": "Khilgaon",
    "postCode": 1219,
    "homeDelivery": "Yes",
    "lockDown": "No",
    "charge1kg": 69,
    "charge2kg": 84,
    "charge3kg": 99,
    "codCharge": 1
  },
  {
    "_id": "65ca3046d97e6e6bf9bf5afd",
    "Category": "Inside Dhaka",
    "district": "Dhaka",
    "area": "Moghbazar",
    "postCode": 1217,
    "homeDelivery": "Yes",
    "lockDown": "No",
    "charge1kg": 69,
    "charge2kg": 84,
    "charge3kg": 99,
    "codCharge": 1
  },
  {
    "_id": "65ca3046d97e6e6bf9bf5afe",
    "Category": "Inside Dhaka",
    "district": "Dhaka",
    "area": "Tejgaon",
    "postCode": 1215,
    "homeDelivery": "Yes",
    "lockDown": "No",
    "charge1kg": 69,
    "charge2kg": 84,
    "charge3kg": 99,
    "codCharge": 1
  },
  {
    "_id": "65ca3046d97e6e6bf9bf5aff",
    "Category": "Inside Dhaka",
    "district": "Dhaka",
    "area": "Pallabi",
    "postCode": 1216,
    "homeDelivery": "Yes",
    "lockDown": "No",
    "charge1kg": 69,
    "charge2kg": 84,
    "charge3kg": 99,
    "codCharge": 1
  },
  {
    "_id": "65ca3046d97e6e6bf9bf5b00",
    "Category": "Inside Dhaka",
    "district": "Dhaka",
    "area": "Badda",
    "postCode": 1212,
    "homeDelivery": "Yes",
    "lockDown": "No",
    "charge1kg": 69,
    "charge2kg": 84,
    "charge3kg": 99,
    "codCharge": 0
  },
  {
    "_id": "65ca3046d97e6e6bf9bf5b01",
    "Category": "Inside Dhaka",
    "district": "Dhaka",
    "area": "Lalmatia",
    "postCode": 1207,
    "homeDelivery": "Yes",
    "lockDown": "No",
    "charge1kg": 69,
    "charge2kg": 84,
    "charge3kg": 99,
    "codCharge": 1
  },
  {
    "_id": "65ca3046d97e6e6bf9bf5b02",
    "Category": "Inside Dhaka",
    "district": "Dhaka",
    "area": "Farmgate",
    "postCode": 1215,
    "homeDelivery": "Yes",
    "lockDown": "No",
    "charge1kg": 69,
    "charge2kg": 84,
    "charge3kg": 99,
    "codCharge": 1
  },
  {
    "_id": "65ca3046d97e6e6bf9bf5b03",
    "Category": "Inside Dhaka",
    "district": "Dhaka",
    "area": "Mouchak",
    "postCode": 1217,
    "homeDelivery": "Yes",
    "lockDown": "No",
    "charge1kg": 69,
    "charge2kg": 84,
    "charge3kg": 99,
    "codCharge": 1
  },
  {
    "_id": "65ca3046d97e6e6bf9bf5b04",
    "Category": "Suburb",
    "district": "Narayanganj",
    "area": "Fatulla",
    "postCode": 1410,
    "homeDelivery": "Yes",
    "lockDown": "No",
    "charge1kg": 115,
    "charge2kg": 130,
    "charge3kg": 140,
    "codCharge": 1
  },
  {
    "_id": "65ca3046d97e6e6bf9bf5b05",
    "Category": "Suburb",
    "district": "Narayanganj",
    "area": "Narayanganj Sadar",
    "postCode": 1400,
    "homeDelivery": "Yes",
    "lockDown": "No",
    "charge1kg": 115,
    "charge2kg": 130,
    "charge3kg": 140,
    "codCharge": 1
  },
  {
    "_id": "65ca3046d97e6e6bf9bf5b06",
    "Category": "Suburb",
    "district": "Narayanganj",
    "area": "Rupganj",
    "postCode": 1463,
    "homeDelivery": "Yes",
    "lockDown": "No",
    "charge1kg": 115,
    "charge2kg": 130,
    "charge3kg": 140,
    "codCharge": 1
  },
  {
    "_id": "65ca3046d97e6e6bf9bf5b07",
    "Category": "Suburb",
    "district": "Narayanganj",
    "area": "Sonargaon",
    "postCode": 1440,
    "homeDelivery": "Yes",
    "lockDown": "No",
    "charge1kg": 115,
    "charge2kg": 130,
    "charge3kg": 140,
    "codCharge": 1
  },
  {
    "_id": "65ca3046d97e6e6bf9bf5b08",
    "Category": "Suburb",
    "district": "Narayanganj",
    "area": "Bhulta",
    "postCode": 1439,
    "homeDelivery": "Yes",
    "lockDown": "No",
    "charge1kg": 115,
    "charge2kg": 130,
    "charge3kg": 140,
    "codCharge": 1
  },
  {
    "_id": "65ca3046d97e6e6bf9bf5b09",
    "Category": "Suburb",
    "district": "Narayanganj",
    "area": "Nawabganj",
    "postCode": 1320,
    "homeDelivery": "Yes",
    "lockDown": "No",
    "charge1kg": 115,
    "charge2kg": 130,
    "charge3kg": 140,
    "codCharge": 1
  },
  {
    "_id": "65ca3046d97e6e6bf9bf5b0a",
    "Category": "Suburb",
    "district": "Gazipur",
    "area": "Gazipur Sadar",
    "postCode": 1700,
    "homeDelivery": "Yes",
    "lockDown": "No",
    "charge1kg": 115,
    "charge2kg": 130,
    "charge3kg": 140,
    "codCharge": 1
  },
  {
    "_id": "65ca3046d97e6e6bf9bf5b0b",
    "Category": "Suburb",
    "district": "Gazipur",
    "area": "Kaliakair",
    "postCode": 1750,
    "homeDelivery": "Yes",
    "lockDown": "No",
    "charge1kg": 115,
    "charge2kg": 130,
    "charge3kg": 140,
    "codCharge": 1
  },
  {
    "_id": "65ca3046d97e6e6bf9bf5b0c",
    "Category": "Suburb",
    "district": "Gazipur",
    "area": "Kapasia",
    "postCode": 1740,
    "homeDelivery": "Yes",
    "lockDown": "No",
    "charge1kg": 115,
    "charge2kg": 130,
    "charge3kg": 140,
    "codCharge": 1
  },
  {
    "_id": "65ca3046d97e6e6bf9bf5b0d",
    "Category": "Suburb",
    "district": "Gazipur",
    "area": "Sreepur",
    "postCode": 1741,
    "homeDelivery": "Yes",
    "lockDown": "No",
    "charge1kg": 115,
    "charge2kg": 130,
    "charge3kg": 140,
    "codCharge": 1
  },
  {
    "_id": "65ca3046d97e6e6bf9bf5b0e",
    "Category": "Suburb",
    "district": "Dhaka",
    "area": "Savar",
    "postCode": 1340,
    "homeDelivery": "Yes",
    "lockDown": "No",
    "charge1kg": 115,
    "charge2kg": 130,
    "charge3kg": 140,
    "codCharge": 1
  },
  {
    "_id": "65ca3046d97e6e6bf9bf5b0f",
    "Category": "Suburb",
    "district": "Dhaka",
    "area": "Ashulia",
    "postCode": 1349,
    "homeDelivery": "Yes",
    "lockDown": "No",
    "charge1kg": 115,
    "charge2kg": 130,
    "charge3kg": 140,
    "codCharge": 1
  },
  {
    "_id": "65ca3046d97e6e6bf9bf5b10",
    "Category": "Suburb",
    "district": "Dhaka",
    "area": "Tongi",
    "postCode": 1710,
    "homeDelivery": "Yes",
    "lockDown": "No",
    "charge1kg": 115,
    "charge2kg": 130,
    "charge3kg": 140,
    "codCharge": 1
  },
  {
    "_id": "65ca3046d97e6e6bf9bf5b11",
    "Category": "Suburb",
    "district": "Dhaka",
    "area": "Demra",
    "postCode": 1360,
    "homeDelivery": "Yes",
    "lockDown": "No",
    "charge1kg": 115,
    "charge2kg": 130,
    "charge3kg": 140,
    "codCharge": 1
  },
  {
    "_id": "65ca3046d97e6e6bf9bf5b12",
    "Category": "Suburb",
    "district": "Dhaka",
    "area": "Rupganj",
    "postCode": 1463,
    "homeDelivery": "Yes",
    "lockDown": "No",
    "charge1kg": 115,
    "charge2kg": 130,
    "charge3kg": 140,
    "codCharge": 1
  },
  {
    "_id": "65ca3046d97e6e6bf9bf5b13",
    "Category": "Outside Dhaka",
    "district": "Chattogram",
    "area": "Chattogram Sadar",
    "postCode": 4000,
    "homeDelivery": "Yes",
    "lockDown": "No",
    "charge1kg": 150,
    "charge2kg": 180,
    "charge3kg": 210,
    "codCharge": 2
  },
  {
    "_id": "65ca3046d97e6e6bf9bf5b14",
    "Category": "Outside Dhaka",
    "district": "Chattogram",
    "area": "Mirsharai",
    "postCode": 4310,
    "homeDelivery": "Yes",
    "lockDown": "No",
    "charge1kg": 150,
    "charge2kg": 180,
    "charge3kg": 210,
    "codCharge": 2
  },
  {
    "_id": "65ca3046d97e6e6bf9bf5b15",
    "Category": "Outside Dhaka",
    "district": "Chattogram",
    "area": "Sitakunda",
    "postCode": 4316,
    "homeDelivery": "Yes",
    "lockDown": "No",
    "charge1kg": 150,
    "charge2kg": 180,
    "charge3kg": 210,
    "codCharge": 2
  },
  {
    "_id": "65ca3046d97e6e6bf9bf5b16",
    "Category": "Outside Dhaka",
    "district": "Chattogram",
    "area": "Raozan",
    "postCode": 4340,
    "homeDelivery": "Yes",
    "lockDown": "No",
    "charge1kg": 150,
    "charge2kg": 180,
    "charge3kg": 210,
    "codCharge": 2
  },
  {
    "_id": "65ca3046d97e6e6bf9bf5b17",
    "Category": "Outside Dhaka",
    "district": "Chattogram",
    "area": "Boalkhali",
    "postCode": 4350,
    "homeDelivery": "Yes",
    "lockDown": "No",
    "charge1kg": 150,
    "charge2kg": 180,
    "charge3kg": 210,
    "codCharge": 2
  },
  {
    "_id": "65ca3046d97e6e6bf9bf5b18",
    "Category": "Outside Dhaka",
    "district": "Chattogram",
    "area": "Patiya",
    "postCode": 4370,
    "homeDelivery": "Yes",
    "lockDown": "No",
    "charge1kg": 150,
    "charge2kg": 180,
    "charge3kg": 210,
    "codCharge": 2
  },
  {
    "_id": "65ca3046d97e6e6bf9bf5b19",
    "Category": "Outside Dhaka",
    "district": "Rajshahi",
    "area": "Rajshahi Sadar",
    "postCode": 6000,
    "homeDelivery": "Yes",
    "lockDown": "No",
    "charge1kg": 150,
    "charge2kg": 180,
    "charge3kg": 210,
    "codCharge": 2
  },
  {
    "_id": "65ca3046d97e6e6bf9bf5b1a",
    "Category": "Outside Dhaka",
    "district": "Rajshahi",
    "area": "Puthia",
    "postCode": 6330,
    "homeDelivery": "Yes",
    "lockDown": "No",
    "charge1kg": 150,
    "charge2kg": 180,
    "charge3kg": 210,
    "codCharge": 2
  },
  {
    "_id": "65ca3046d97e6e6bf9bf5b1b",
    "Category": "Outside Dhaka",
    "district": "Rajshahi",
    "area": "Godagari",
    "postCode": 6300,
    "homeDelivery": "Yes",
    "lockDown": "No",
    "charge1kg": 150,
    "charge2kg": 180,
    "charge3kg": 210,
    "codCharge": 2
  },
  {
    "_id": "65ca3046d97e6e6bf9bf5b1c",
    "Category": "Outside Dhaka",
    "district": "Rajshahi",
    "area": "Paba",
    "postCode": 6290,
    "homeDelivery": "Yes",
    "lockDown": "No",
    "charge1kg": 150,
    "charge2kg": 180,
    "charge3kg": 210,
    "codCharge": 2
  },
  {
    "_id": "65ca3046d97e6e6bf9bf5b1d",
    "Category": "Outside Dhaka",
    "district": "Sylhet",
    "area": "Sylhet Sadar",
    "postCode": 3100,
    "homeDelivery": "Yes",
    "lockDown": "No",
    "charge1kg": 150,
    "charge2kg": 180,
    "charge3kg": 210,
    "codCharge": 2
  },
  {
    "_id": "65ca3046d97e6e6bf9bf5b1e",
    "Category": "Outside Dhaka",
    "district": "Sylhet",
    "area": "Beanibazar",
    "postCode": 3116,
    "homeDelivery": "Yes",
    "lockDown": "No",
    "charge1kg": 150,
    "charge2kg": 180,
    "charge3kg": 210,
    "codCharge": 2
  },
  {
    "_id": "65ca3046d97e6e6bf9bf5b1f",
    "Category": "Outside Dhaka",
    "district": "Sylhet",
    "area": "Bianibazar",
    "postCode": 3117,
    "homeDelivery": "Yes",
    "lockDown": "No",
    "charge1kg": 150,
    "charge2kg": 180,
    "charge3kg": 210,
    "codCharge": 2
  },
  {
    "_id": "65ca3046d97e6e6bf9bf5b20",
    "Category": "Outside Dhaka",
    "district": "Sylhet",
    "area": "Golapganj",
    "postCode": 3120,
    "homeDelivery": "Yes",
    "lockDown": "No",
    "charge1kg": 150,
    "charge2kg": 180,
    "charge3kg": 210,
    "codCharge": 2
  },
  {
    "_id": "65ca3046d97e6e6bf9bf5b21",
    "Category": "Outside Dhaka",
    "district": "Sylhet",
    "area": "Fenchuganj",
    "postCode": 3110,
    "homeDelivery": "Yes",
    "lockDown": "No",
    "charge1kg": 150,
    "charge2kg": 180,
    "charge3kg": 210,
    "codCharge": 2
  }
]